STARLINK-2437
1 28102C 21027L   21325.13419399  .00000749  00000-0  50147-4 0  3253
2 28102  53.0516 357.6257 0001537  61.7843  60.1187 15.06403252    19
